start=new Date('2022-09-14T00:00:00.000Z').valueOf();
sats=[{"TLE_LINE1":"1 52456U 22049F   22256.91667824 -.00052784  00000-0 -33222-2 0  9991","SITE":"AFETR","OBJECT_ID":"2022-049F","COUNTRY_CODE":"US","NORAD_CAT_ID":"52456","MEAN_MOTION_DOT":"-0.00052784","APOAPSIS":"540.843","TLE_LINE2":"2 52456  53.2201  22.8162 0001617  51.2552  65.7724 15.08846838  1309","EPHEMERIS_TYPE":"0","GP_ID":"212537749","MEAN_MOTION_DDOT":"0.0000000000000","EPOCH":"2022-09-13T22:00:00.999936","CENTER_NAME":"EARTH","MEAN_ANOMALY":"65.7724","CLASSIFICATION_TYPE":"U","RA_OF_ASC_NODE":"22.8162","PERIOD":"95.437","FILE":"3573088","OBJECT_TYPE":"PAYLOAD","INCLINATION":"53.2201","LAUNCH_DATE":"2022-05-06","MEAN_MOTION":"15.08846838","SEMIMAJOR_AXIS":"6917.859","OBJECT_NAME":"STARLINK-3896","BSTAR":"-0.00332220000000","REF_FRAME":"TEME","TIME_SYSTEM":"UTC","DECAY_DATE":null,"ELEMENT_SET_NO":"999","ECCENTRICITY":"0.00016170","ARG_OF_PERICENTER":"51.2552","REV_AT_EPOCH":"130","PERIAPSIS":"538.606","RCS_SIZE":"MEDIUM","MEAN_ELEMENT_THEORY":"SGP4"},{"TLE_LINE2":"2 52457  53.2182  22.8141 0001546  62.4813  74.5142 15.08878380  1309","CENTER_NAME":"EARTH","MEAN_MOTION_DDOT":"0.0000000000000","EPOCH":"2022-09-13T22:00:00.999936","GP_ID":"212538478","EPHEMERIS_TYPE":"0","OBJECT_ID":"2022-049G","TLE_LINE1":"1 52457U 22049G   22256.91667824 -.00090083  00000-0 -57075-2 0  9998","SITE":"AFETR","APOAPSIS":"540.698","MEAN_MOTION_DOT":"-0.00090083","NORAD_CAT_ID":"52457","COUNTRY_CODE":"US","PERIAPSIS":"538.559","REV_AT_EPOCH":"130","ELEMENT_SET_NO":"999","ECCENTRICITY":"0.00015460","ARG_OF_PERICENTER":"62.4813","TIME_SYSTEM":"UTC","DECAY_DATE":null,"OBJECT_NAME":"STARLINK-3899","SEMIMAJOR_AXIS":"6917.763","BSTAR":"-0.00570750000000","REF_FRAME":"TEME","MEAN_MOTION":"15.08878380","MEAN_ELEMENT_THEORY":"SGP4","RCS_SIZE":"LARGE","RA_OF_ASC_NODE":"22.8141","CLASSIFICATION_TYPE":"U","MEAN_ANOMALY":"74.5142","LAUNCH_DATE":"2022-05-06","INCLINATION":"53.2182","OBJECT_TYPE":"PAYLOAD","FILE":"3573088","PERIOD":"95.435"},{"SITE":"AFETR","TLE_LINE1":"1 52458U 22049H   22256.91667824 -.00031971  00000-0 -19996-2 0  9990","OBJECT_ID":"2022-049H","COUNTRY_CODE":"US","NORAD_CAT_ID":"52458","MEAN_MOTION_DOT":"-0.00031971","APOAPSIS":"540.977","TLE_LINE2":"2 52458  53.2186  22.8114 0001780  43.3111 113.6821 15.08839844  1304","EPHEMERIS_TYPE":"0","GP_ID":"212537905","CENTER_NAME":"EARTH","MEAN_MOTION_DDOT":"0.0000000000000","EPOCH":"2022-09-13T22:00:00.999936","MEAN_ANOMALY":"113.6821","CLASSIFICATION_TYPE":"U","RA_OF_ASC_NODE":"22.8114","PERIOD":"95.438","FILE":"3573088","OBJECT_TYPE":"PAYLOAD","INCLINATION":"53.2186","LAUNCH_DATE":"2022-05-06","MEAN_MOTION":"15.08839844","TIME_SYSTEM":"UTC","DECAY_DATE":null,"SEMIMAJOR_AXIS":"6917.881","BSTAR":"-0.00199960000000","OBJECT_NAME":"STARLINK-3898","REF_FRAME":"TEME","REV_AT_EPOCH":"130","ECCENTRICITY":"0.00017800","ELEMENT_SET_NO":"999","ARG_OF_PERICENTER":"43.3111","PERIAPSIS":"538.514","RCS_SIZE":"LARGE","MEAN_ELEMENT_THEORY":"SGP4"},{"TLE_LINE2":"2 52459  53.2159  12.8186 0001584  48.6751 188.5426 15.08854177  1301","CENTER_NAME":"EARTH","EPOCH":"2022-09-13T22:00:00.999936","MEAN_MOTION_DDOT":"0.0000000000000","EPHEMERIS_TYPE":"0","GP_ID":"212538007","OBJECT_ID":"2022-049J","SITE":"AFETR","TLE_LINE1":"1 52459U 22049J   22256.91667824 -.00064595  00000-0 -40756-2 0  9997","NORAD_CAT_ID":"52459","MEAN_MOTION_DOT":"-0.00064595","APOAPSIS":"540.798","COUNTRY_CODE":"US","REV_AT_EPOCH":"130","ELEMENT_SET_NO":"999","ECCENTRICITY":"0.00015840","ARG_OF_PERICENTER":"48.6751","PERIAPSIS":"538.606","MEAN_MOTION":"15.08854177","DECAY_DATE":null,"TIME_SYSTEM":"UTC","BSTAR":"-0.00407560000000","SEMIMAJOR_AXIS":"6917.837","REF_FRAME":"TEME","OBJECT_NAME":"STARLINK-3856","MEAN_ELEMENT_THEORY":"SGP4","RCS_SIZE":"LARGE","RA_OF_ASC_NODE":"12.8186","MEAN_ANOMALY":"188.5426","CLASSIFICATION_TYPE":"U","INCLINATION":"53.2159","LAUNCH_DATE":"2022-05-06","PERIOD":"95.437","OBJECT_TYPE":"PAYLOAD","FILE":"3573088"},{"TLE_LINE2":"2 52460  53.2166  12.8189 0001592  56.8351 195.2070 15.08887856  1300","CENTER_NAME":"EARTH","EPOCH":"2022-09-13T22:00:00.999936","MEAN_MOTION_DDOT":"0.0000000000000","EPHEMERIS_TYPE":"0","GP_ID":"212538165","OBJECT_ID":"2022-049K","SITE":"AFETR","TLE_LINE1":"1 52460U 22049K   22256.91667824 -.00148487  00000-0 -94943-2 0  9999","NORAD_CAT_ID":"52460","MEAN_MOTION_DOT":"-0.00148487","APOAPSIS":"540.700","COUNTRY_CODE":"US","REV_AT_EPOCH":"130","ARG_OF_PERICENTER":"56.8351","ELEMENT_SET_NO":"999","ECCENTRICITY":"0.00015920","PERIAPSIS":"538.498","MEAN_MOTION":"15.08887856","DECAY_DATE":null,"TIME_SYSTEM":"UTC","SEMIMAJOR_AXIS":"6917.734","BSTAR":"-0.00949430000000","REF_FRAME":"TEME","OBJECT_NAME":"STARLINK-3865","MEAN_ELEMENT_THEORY":"SGP4","RCS_SIZE":"LARGE","RA_OF_ASC_NODE":"12.8189","MEAN_ANOMALY":"195.2070","CLASSIFICATION_TYPE":"U","INCLINATION":"53.2166","LAUNCH_DATE":"2022-05-06","PERIOD":"95.435","FILE":"3573088","OBJECT_TYPE":"PAYLOAD"},{"SITE":"AFETR","TLE_LINE1":"1 52461U 22049L   22256.91667824 -.00076911  00000-0 -48646-2 0  9991","OBJECT_ID":"2022-049L","COUNTRY_CODE":"US","NORAD_CAT_ID":"52461","MEAN_MOTION_DOT":"-0.00076911","APOAPSIS":"540.870","TLE_LINE2":"2 52461  53.2157   2.8177 0001684  43.0194 209.1958 15.08853206  1304","EPHEMERIS_TYPE":"0","GP_ID":"212538695","MEAN_MOTION_DDOT":"0.0000000000000","EPOCH":"2022-09-13T22:00:00.999936","CENTER_NAME":"EARTH","MEAN_ANOMALY":"209.1958","CLASSIFICATION_TYPE":"U","RA_OF_ASC_NODE":"2.8177","PERIOD":"95.437","OBJECT_TYPE":"PAYLOAD","FILE":"3573088","INCLINATION":"53.2157","LAUNCH_DATE":"2022-05-06","MEAN_MOTION":"15.08853206","SEMIMAJOR_AXIS":"6917.840","OBJECT_NAME":"STARLINK-3900","BSTAR":"-0.00486460000000","REF_FRAME":"TEME","TIME_SYSTEM":"UTC","DECAY_DATE":null,"ELEMENT_SET_NO":"999","ECCENTRICITY":"0.00016840","ARG_OF_PERICENTER":"43.0194","REV_AT_EPOCH":"130","PERIAPSIS":"538.540","RCS_SIZE":"LARGE","MEAN_ELEMENT_THEORY":"SGP4"},{"SITE":"AFETR","TLE_LINE1":"1 52462U 22049M   22256.91667824 -.00071020  00000-0 -44860-2 0  9992","OBJECT_ID":"2022-049M","COUNTRY_CODE":"US","MEAN_MOTION_DOT":"-0.00071020","APOAPSIS":"540.838","NORAD_CAT_ID":"52462","TLE_LINE2":"2 52462  53.2172  12.8165 0001671  45.5253 231.6728 15.08860831  1306","GP_ID":"212538320","EPHEMERIS_TYPE":"0","EPOCH":"2022-09-13T22:00:00.999936","MEAN_MOTION_DDOT":"0.0000000000000","CENTER_NAME":"EARTH","CLASSIFICATION_TYPE":"U","MEAN_ANOMALY":"231.6728","RA_OF_ASC_NODE":"12.8165","FILE":"3573088","OBJECT_TYPE":"PAYLOAD","PERIOD":"95.436","LAUNCH_DATE":"2022-05-06","INCLINATION":"53.2172","SEMIMAJOR_AXIS":"6917.817","BSTAR":"-0.00448600000000","OBJECT_NAME":"STARLINK-3903","REF_FRAME":"TEME","TIME_SYSTEM":"UTC","DECAY_DATE":null,"MEAN_MOTION":"15.08860831","PERIAPSIS":"538.526","ELEMENT_SET_NO":"999","ECCENTRICITY":"0.00016710","ARG_OF_PERICENTER":"45.5253","REV_AT_EPOCH":"130","RCS_SIZE":"LARGE","MEAN_ELEMENT_THEORY":"SGP4"},{"TLE_LINE2":"2 52463  53.2156   2.8171 0001659  48.2564 223.9454 15.08856990  1307","GP_ID":"212537591","EPHEMERIS_TYPE":"0","CENTER_NAME":"EARTH","EPOCH":"2022-09-13T22:00:00.999936","MEAN_MOTION_DDOT":"0.0000000000000","SITE":"AFETR","TLE_LINE1":"1 52463U 22049N   22256.91667824 -.00072464  00000-0 -45790-2 0  9999","OBJECT_ID":"2022-049N","COUNTRY_CODE":"US","APOAPSIS":"540.841","MEAN_MOTION_DOT":"-0.00072464","NORAD_CAT_ID":"52463","DECAY_DATE":null,"TIME_SYSTEM":"UTC","SEMIMAJOR_AXIS":"6917.828","BSTAR":"-0.00457900000000","OBJECT_NAME":"STARLINK-3885","REF_FRAME":"TEME","MEAN_MOTION":"15.08856990","PERIAPSIS":"538.546","REV_AT_EPOCH":"130","ELEMENT_SET_NO":"999","ECCENTRICITY":"0.00016590","ARG_OF_PERICENTER":"48.2564","RCS_SIZE":"MEDIUM","MEAN_ELEMENT_THEORY":"SGP4","CLASSIFICATION_TYPE":"U","MEAN_ANOMALY":"223.9454","RA_OF_ASC_NODE":"2.8171","OBJECT_TYPE":"PAYLOAD","FILE":"3573088","PERIOD":"95.436","LAUNCH_DATE":"2022-05-06","INCLINATION":"53.2156"},{"MEAN_MOTION_DDOT":"0.0000000000000","EPOCH":"2022-09-13T22:00:00.999936","CENTER_NAME":"EARTH","GP_ID":"212537750","EPHEMERIS_TYPE":"0","TLE_LINE2":"2 52464  53.2174  12.8189 0001666  52.4921 204.7192 15.08849393  1305","APOAPSIS":"540.869","MEAN_MOTION_DOT":"-0.00060632","NORAD_CAT_ID":"52464","COUNTRY_CODE":"US","OBJECT_ID":"2022-049P","TLE_LINE1":"1 52464U 22049P   22256.91667824 -.00060632  00000-0 -38228-2 0  9992","SITE":"AFETR","MEAN_ELEMENT_THEORY":"SGP4","RCS_SIZE":"LARGE","PERIAPSIS":"538.564","ELEMENT_SET_NO":"999","ARG_OF_PERICENTER":"52.4921","ECCENTRICITY":"0.00016660","REV_AT_EPOCH":"130","SEMIMAJOR_AXIS":"6917.852","BSTAR":"-0.00382280000000","OBJECT_NAME":"STARLINK-3904","REF_FRAME":"TEME","TIME_SYSTEM":"UTC","DECAY_DATE":null,"MEAN_MOTION":"15.08849393","LAUNCH_DATE":"2022-05-06","INCLINATION":"53.2174","OBJECT_TYPE":"PAYLOAD","FILE":"3573088","PERIOD":"95.437","RA_OF_ASC_NODE":"12.8189","CLASSIFICATION_TYPE":"U","MEAN_ANOMALY":"204.7192"},{"TLE_LINE2":"2 52465  53.2149   2.8126 0001818  45.1259 247.0743 15.08845193  1306","CENTER_NAME":"EARTH","MEAN_MOTION_DDOT":"0.0000000000000","EPOCH":"2022-09-13T22:00:00.999936","EPHEMERIS_TYPE":"0","GP_ID":"212538479","OBJECT_ID":"2022-049Q","SITE":"AFETR","TLE_LINE1":"1 52465U 22049Q   22256.91667824 -.00053529  00000-0 -33698-2 0  9996","NORAD_CAT_ID":"52465","APOAPSIS":"540.987","MEAN_MOTION_DOT":"-0.00053529","COUNTRY_CODE":"US","REV_AT_EPOCH":"130","ELEMENT_SET_NO":"999","ARG_OF_PERICENTER":"45.1259","ECCENTRICITY":"0.00018180","PERIAPSIS":"538.472","MEAN_MOTION":"15.08845193","DECAY_DATE":null,"TIME_SYSTEM":"UTC","SEMIMAJOR_AXIS":"6917.865","BSTAR":"-0.00336980000000","OBJECT_NAME":"STARLINK-3863","REF_FRAME":"TEME","MEAN_ELEMENT_THEORY":"SGP4","RCS_SIZE":"LARGE","RA_OF_ASC_NODE":"2.8126","MEAN_ANOMALY":"247.0743","CLASSIFICATION_TYPE":"U","INCLINATION":"53.2149","LAUNCH_DATE":"2022-05-06","PERIOD":"95.437","OBJECT_TYPE":"PAYLOAD","FILE":"3573088"}];
